{
    "links": {
        "self": "http://www.neowsapp.com/rest/v1/neo/3157486?api_key=iIulBulltgU6a56xZRHN4H3l9WmuAYTsLGpBGhQ2"
    },
    "id": "3157486",
    "neo_reference_id": "3157486",
    "name": "(2002 EG116)",
    "designation": "2002 EG116",
    "nasa_jpl_url": "http://ssd.jpl.nasa.gov/sbdb.cgi?sstr=3157486",
    "absolute_magnitude_h": 20.8,
    "estimated_diameter": {
        "kilometers": {
            "estimated_diameter_min": 0.1838886721,
            "estimated_diameter_max": 0.411187571
        },
        "meters": {
            "estimated_diameter_min": 183.8886720703,
            "estimated_diameter_max": 411.1875710413
        },
        "miles": {
            "estimated_diameter_min": 0.1142630881,
            "estimated_diameter_max": 0.2555000322
        },
        "feet": {
            "estimated_diameter_min": 603.309310875,
            "estimated_diameter_max": 1349.040630575
        }
    },
    "is_potentially_hazardous_asteroid": false,
    "close_approach_data": [
        {
            "close_approach_date": "2002-03-14",
            "close_approach_date_full": "2002-Mar-14 08:51",
            "epoch_date_close_approach": 1016095860000,
            "relative_velocity": {
                "kilometers_per_second": "6.7033409416",
                "kilometers_per_hour": "24132.0273897243",
                "miles_per_hour": "14994.7033522428"
            },
            "miss_distance": {
                "astronomical": "0.3185756189",
                "lunar": "123.9259157521",
                "kilometers": "47658234.021371743",
                "miles": "29613453.4267983334"
            },
            "orbiting_body": "Earth"
        }
    ],
    "orbital_data": {
        "orbit_id": "7",
        "orbit_determination_date": "2017-04-06 09:15:19",
        "first_observation_date": "2002-03-05",
        "last_observation_date": "2002-03-20",
        "data_arc_in_days": 15,
        "observations_used": 13,
        "orbit_uncertainty": "8",
        "minimum_orbit_intersection": ".316906",
        "jupiter_tisserand_invariant": "4.733",
        "epoch_osculation": "2452346.5",
        "eccentricity": ".0780230446319931",
        "semi_major_axis": "1.39760993211913",
        "inclination": "12.19738749544848",
        "ascending_node_longitude": "158.2563874394748",
        "orbital_period": "603.5001665973646",
        "perihelion_distance": "1.288564150007282",
        "perihelion_argument": "50.42123174906658",
        "aphelion_distance": "1.506655714230977",
        "perihelion_time": "2452399.417628665119",
        "mean_anomaly": "328.4335690794389",
        "mean_motion": ".5965201335895904",
        "equinox": "J2000",
        "orbit_class": {
            "orbit_class_type": "AMO",
            "orbit_class_description": "Near-Earth asteroid orbits similar to that of 1221 Amor",
            "orbit_class_range": "1.017 AU < q (perihelion) < 1.3 AU"
        }
    },
    "is_sentry_object": false
}